STARLINK-4025           
1 52696U 22053AS  22231.16668981 -.00065172  00000+0 -41095-2 0  9998
2 52696  53.2162 213.4004 0002041  49.1902 115.0507 15.08879533 14727
STARLINK-4018           
1 52697U 22053AT  22230.91667824 -.00001416  00000+0 -70863-4 0  9994
2 52697  53.2168 219.5218 0001836  49.8656 142.9691 15.08842133  1301
STARLINK-4030           
1 52698U 22053AU  22231.16668981 -.00036612  00000+0 -22930-2 0  9994
2 52698  53.2153 218.4051 0002361  52.5013 359.0619 15.08854166 14642
STARLINK-3987           
1 52699U 22053AV  22230.91667824  .00031798  00000+0  20073-2 0  9996
2 52699  53.2123 209.5454 0001926  49.3422 218.4560 15.08834136 14741
STARLINK-4034           
1 52700U 22053AW  22231.25001157 -.00040953  00000+0 -25682-2 0  9994
2 52700  53.2153 218.0294 0002163  50.0526 134.3465 15.08859928 14669
STARLINK-4003           
1 52701U 22053AX  22231.16668981 -.01060323  00000+0 -54653-1 0  9992
2 52701  53.2173 203.5955 0001853  44.0694 153.2240 15.19013169 14852
STARLINK-4033           
1 52702U 22053AY  22230.91667824  .00033221  00000+0  20966-2 0  9995
2 52702  53.2179 219.5213 0001521  58.5330 154.2585 15.08822100 14610
STARLINK-4020           
1 52703U 22053AZ  22230.91667824 -.01060447  00000+0 -52383-1 0  9996
2 52703  53.2175 204.7493 0001526  48.5357 264.9150 15.20468997  1309
STARLINK-3999           
1 52704U 22053BA  22231.16668981 -.01060613  00000+0 -55141-1 0  9990
2 52704  53.2173 203.5912 0001866  43.5411 138.4315 15.18718107 14854
STARLINK-3844           
1 52705U 22053BB  22230.91667824 -.01060598  00000+0 -52848-1 0  9991
2 52705  53.2174 204.7449 0001448  56.0936 242.7152 15.20173896  1308
STARLINK-3970           
1 52706U 22053BC  22231.16668981 -.01060170  00000+0 -54177-1 0  9998
2 52706  53.2173 203.5999 0001753  48.2888 164.1878 15.19308313 14851
STARLINK-4007           
1 52707U 22053BD  22230.91667824 -.01060416  00000+0 -52050-1 0  9997
2 52707  53.2175 204.7523 0001632  42.0200 282.2404 15.20684036  1300
STARLINK-3962           
1 52708U 22053BE  22231.16668981 -.01064667  00000+0 -48988-1 0  9998
2 52708  53.2176 203.6474 0001720  37.3367 340.8701 15.22877583 14852
STARLINK-4091           
1 52830U 22062A   22230.91667824 -.00005571  00000+0 -33198-3 0  9998
2 52830  53.2138 104.5385 0001470  67.2007 223.3150 15.08862841  1305
STARLINK-4089           
1 52831U 22062B   22230.91667824 -.00046812  00000+0 -29392-2 0  9992
2 52831  53.2142 104.5418 0001386  70.3163 160.1992 15.08879761  1303
STARLINK-4083           
1 52832U 22062C   22230.91667824  .00001951  00000+0  14059-3 0  9991
2 52832  53.2142 104.5407 0001810  53.6464 196.8381 15.08861837  1305
