[{"OBJECT_NAME":"STARLINK-4025","OBJECT_ID":"2022-053AS","EPOCH":"2022-08-19T04:00:01.999584","MEAN_MOTION":15.08879533,"ECCENTRICITY":0.0002041,"INCLINATION":53.2162,"RA_OF_ASC_NODE":213.4004,"ARG_OF_PERICENTER":49.1902,"MEAN_ANOMALY":115.0507,"EPHEMERIS_TYPE":0,"CLASSIFICATION_TYPE":"U","NORAD_CAT_ID":52696,"ELEMENT_SET_NO":999,"REV_AT_EPOCH":1472,"BSTAR":-0.0041095,"MEAN_MOTION_DOT":-0.00065172,"MEAN_MOTION_DDOT":0},{"OBJECT_NAME":"STARLINK-4018","OBJECT_ID":"2022-053AT","EPOCH":"2022-08-18T22:00:00.999936","MEAN_MOTION":15.08842133,"ECCENTRICITY":0.0001836,"INCLINATION":53.2168,"RA_OF_ASC_NODE":219.5218,"ARG_OF_PERICENTER":49.8656,"MEAN_ANOMALY":142.9691,"EPHEMERIS_TYPE":0,"CLASSIFICATION_TYPE":"U","NORAD_CAT_ID":52697,"ELEMENT_SET_NO":999,"REV_AT_EPOCH":130,"BSTAR":-7.0863e-5,"MEAN_MOTION_DOT":-1.416e-5,"MEAN_MOTION_DDOT":0},{"OBJECT_NAME":"STARLINK-4030","OBJECT_ID":"2022-053AU","EPOCH":"2022-08-19T04:00:01.999584","MEAN_MOTION":15.08854166,"ECCENTRICITY":0.0002361,"INCLINATION":53.2153,"RA_OF_ASC_NODE":218.4051,"ARG_OF_PERICENTER":52.5013,"MEAN_ANOMALY":359.0619,"EPHEMERIS_TYPE":0,"CLASSIFICATION_TYPE":"U","NORAD_CAT_ID":52698,"ELEMENT_SET_NO":999,"REV_AT_EPOCH":1464,"BSTAR":-0.002293,"MEAN_MOTION_DOT":-0.00036612,"MEAN_MOTION_DDOT":0},{"OBJECT_NAME":"STARLINK-3987","OBJECT_ID":"2022-053AV","EPOCH":"2022-08-18T22:00:00.999936","MEAN_MOTION":15.08834136,"ECCENTRICITY":0.0001926,"INCLINATION":53.2123,"RA_OF_ASC_NODE":209.5454,"ARG_OF_PERICENTER":49.3422,"MEAN_ANOMALY":218.456,"EPHEMERIS_TYPE":0,"CLASSIFICATION_TYPE":"U","NORAD_CAT_ID":52699,"ELEMENT_SET_NO":999,"REV_AT_EPOCH":1474,"BSTAR":0.0020073,"MEAN_MOTION_DOT":0.00031798,"MEAN_MOTION_DDOT":0},{"OBJECT_NAME":"STARLINK-4034","OBJECT_ID":"2022-053AW","EPOCH":"2022-08-19T06:00:00.999648","MEAN_MOTION":15.08859928,"ECCENTRICITY":0.0002163,"INCLINATION":53.2153,"RA_OF_ASC_NODE":218.0294,"ARG_OF_PERICENTER":50.0526,"MEAN_ANOMALY":134.3465,"EPHEMERIS_TYPE":0,"CLASSIFICATION_TYPE":"U","NORAD_CAT_ID":52700,"ELEMENT_SET_NO":999,"REV_AT_EPOCH":1466,"BSTAR":-0.0025682,"MEAN_MOTION_DOT":-0.00040953,"MEAN_MOTION_DDOT":0},{"OBJECT_NAME":"STARLINK-4003","OBJECT_ID":"2022-053AX","EPOCH":"2022-08-19T04:00:01.999584","MEAN_MOTION":15.19013169,"ECCENTRICITY":0.0001853,"INCLINATION":53.2173,"RA_OF_ASC_NODE":203.5955,"ARG_OF_PERICENTER":44.0694,"MEAN_ANOMALY":153.224,"EPHEMERIS_TYPE":0,"CLASSIFICATION_TYPE":"U","NORAD_CAT_ID":52701,"ELEMENT_SET_NO":999,"REV_AT_EPOCH":1485,"BSTAR":-0.054653,"MEAN_MOTION_DOT":-0.01060323,"MEAN_MOTION_DDOT":0},{"OBJECT_NAME":"STARLINK-4033","OBJECT_ID":"2022-053AY","EPOCH":"2022-08-18T22:00:00.999936","MEAN_MOTION":15.088221,"ECCENTRICITY":0.0001521,"INCLINATION":53.2179,"RA_OF_ASC_NODE":219.5213,"ARG_OF_PERICENTER":58.533,"MEAN_ANOMALY":154.2585,"EPHEMERIS_TYPE":0,"CLASSIFICATION_TYPE":"U","NORAD_CAT_ID":52702,"ELEMENT_SET_NO":999,"REV_AT_EPOCH":1461,"BSTAR":0.0020966,"MEAN_MOTION_DOT":0.00033221,"MEAN_MOTION_DDOT":0},{"OBJECT_NAME":"STARLINK-4020","OBJECT_ID":"2022-053AZ","EPOCH":"2022-08-18T22:00:00.999936","MEAN_MOTION":15.20468997,"ECCENTRICITY":0.0001526,"INCLINATION":53.2175,"RA_OF_ASC_NODE":204.7493,"ARG_OF_PERICENTER":48.5357,"MEAN_ANOMALY":264.915,"EPHEMERIS_TYPE":0,"CLASSIFICATION_TYPE":"U","NORAD_CAT_ID":52703,"ELEMENT_SET_NO":999,"REV_AT_EPOCH":130,"BSTAR":-0.052383,"MEAN_MOTION_DOT":-0.01060447,"MEAN_MOTION_DDOT":0},{"OBJECT_NAME":"STARLINK-3999","OBJECT_ID":"2022-053BA","EPOCH":"2022-08-19T04:00:01.999584","MEAN_MOTION":15.18718107,"ECCENTRICITY":0.0001866,"INCLINATION":53.2173,"RA_OF_ASC_NODE":203.5912,"ARG_OF_PERICENTER":43.5411,"MEAN_ANOMALY":138.4315,"EPHEMERIS_TYPE":0,"CLASSIFICATION_TYPE":"U","NORAD_CAT_ID":52704,"ELEMENT_SET_NO":999,"REV_AT_EPOCH":1485,"BSTAR":-0.055141,"MEAN_MOTION_DOT":-0.01060613,"MEAN_MOTION_DDOT":0},{"OBJECT_NAME":"STARLINK-3844","OBJECT_ID":"2022-053BB","EPOCH":"2022-08-18T22:00:00.999936","MEAN_MOTION":15.20173896,"ECCENTRICITY":0.0001448,"INCLINATION":53.2174,"RA_OF_ASC_NODE":204.7449,"ARG_OF_PERICENTER":56.0936,"MEAN_ANOMALY":242.7152,"EPHEMERIS_TYPE":0,"CLASSIFICATION_TYPE":"U","NORAD_CAT_ID":52705,"ELEMENT_SET_NO":999,"REV_AT_EPOCH":130,"BSTAR":-0.052848,"MEAN_MOTION_DOT":-0.01060598,"MEAN_MOTION_DDOT":0},{"OBJECT_NAME":"STARLINK-3970","OBJECT_ID":"2022-053BC","EPOCH":"2022-08-19T04:00:01.999584","MEAN_MOTION":15.19308313,"ECCENTRICITY":0.0001753,"INCLINATION":53.2173,"RA_OF_ASC_NODE":203.5999,"ARG_OF_PERICENTER":48.2888,"MEAN_ANOMALY":164.1878,"EPHEMERIS_TYPE":0,"CLASSIFICATION_TYPE":"U","NORAD_CAT_ID":52706,"ELEMENT_SET_NO":999,"REV_AT_EPOCH":1485,"BSTAR":-0.054177,"MEAN_MOTION_DOT":-0.0106017,"MEAN_MOTION_DDOT":0},{"OBJECT_NAME":"STARLINK-4007","OBJECT_ID":"2022-053BD","EPOCH":"2022-08-18T22:00:00.999936","MEAN_MOTION":15.20684036,"ECCENTRICITY":0.0001632,"INCLINATION":53.2175,"RA_OF_ASC_NODE":204.7523,"ARG_OF_PERICENTER":42.02,"MEAN_ANOMALY":282.2404,"EPHEMERIS_TYPE":0,"CLASSIFICATION_TYPE":"U","NORAD_CAT_ID":52707,"ELEMENT_SET_NO":999,"REV_AT_EPOCH":130,"BSTAR":-0.05205,"MEAN_MOTION_DOT":-0.01060416,"MEAN_MOTION_DDOT":0},{"OBJECT_NAME":"STARLINK-3962","OBJECT_ID":"2022-053BE","EPOCH":"2022-08-19T04:00:01.999584","MEAN_MOTION":15.22877583,"ECCENTRICITY":0.000172,"INCLINATION":53.2176,"RA_OF_ASC_NODE":203.6474,"ARG_OF_PERICENTER":37.3367,"MEAN_ANOMALY":340.8701,"EPHEMERIS_TYPE":0,"CLASSIFICATION_TYPE":"U","NORAD_CAT_ID":52708,"ELEMENT_SET_NO":999,"REV_AT_EPOCH":1485,"BSTAR":-0.048988,"MEAN_MOTION_DOT":-0.01064667,"MEAN_MOTION_DDOT":0},{"OBJECT_NAME":"STARLINK-4091","OBJECT_ID":"2022-062A","EPOCH":"2022-08-18T22:00:00.999936","MEAN_MOTION":15.08862841,"ECCENTRICITY":0.000147,"INCLINATION":53.2138,"RA_OF_ASC_NODE":104.5385,"ARG_OF_PERICENTER":67.2007,"MEAN_ANOMALY":223.315,"EPHEMERIS_TYPE":0,"CLASSIFICATION_TYPE":"U","NORAD_CAT_ID":52830,"ELEMENT_SET_NO":999,"REV_AT_EPOCH":130,"BSTAR":-0.00033198,"MEAN_MOTION_DOT":-5.571e-5,"MEAN_MOTION_DDOT":0},{"OBJECT_NAME":"STARLINK-4089","OBJECT_ID":"2022-062B","EPOCH":"2022-08-18T22:00:00.999936","MEAN_MOTION":15.08879761,"ECCENTRICITY":0.0001386,"INCLINATION":53.2142,"RA_OF_ASC_NODE":104.5418,"ARG_OF_PERICENTER":70.3163,"MEAN_ANOMALY":160.1992,"EPHEMERIS_TYPE":0,"CLASSIFICATION_TYPE":"U","NORAD_CAT_ID":52831,"ELEMENT_SET_NO":999,"REV_AT_EPOCH":130,"BSTAR":-0.0029392,"MEAN_MOTION_DOT":-0.00046812,"MEAN_MOTION_DDOT":0},{"OBJECT_NAME":"STARLINK-4083","OBJECT_ID":"2022-062C","EPOCH":"2022-08-18T22:00:00.999936","MEAN_MOTION":15.08861837,"ECCENTRICITY":0.000181,"INCLINATION":53.2142,"RA_OF_ASC_NODE":104.5407,"ARG_OF_PERICENTER":53.6464,"MEAN_ANOMALY":196.8381,"EPHEMERIS_TYPE":0,"CLASSIFICATION_TYPE":"U","NORAD_CAT_ID":52832,"ELEMENT_SET_NO":999,"REV_AT_EPOCH":130,"BSTAR":0.00014059,"MEAN_MOTION_DOT":1.951e-5,"MEAN_MOTION_DDOT":0}]